{
  "type": "FeatureCollection",
  "features": [
    {
      "type": "Feature",
      "properties": {
        "norad_id": 43262,
        "name": "GAOFEN-1 04",
        "group": "resource",
        "lat": 63.91536706167375,
        "lon": -103.82118323707766,
        "alt_km": 634.1397310044276,
        "timestamp": "2025-12-27T11:23:19.535058+00:00",
        "meta_object_name": "GAOFEN-1 04",
        "meta_object_id": "2018-031D",
        "meta_epoch": "2025-12-27T04:21:51.885792",
        "meta_mean_motion": 14.7643447,
        "meta_eccentricity": 4.56e-05,
        "meta_inclination": 98.0784,
        "meta_ra_of_asc_node": 59.021,
        "meta_arg_of_pericenter": 70.4947,
        "meta_mean_anomaly": 289.6312,
        "meta_ephemeris_type": 0,
        "meta_classification_type": "U",
        "meta_norad_cat_id": 43262,
        "meta_element_set_no": 999,
        "meta_rev_at_epoch": 41730,
        "meta_bstar": 0.00011132,
        "meta_mean_motion_dot": 7.22e-06,
        "meta_mean_motion_ddot": 0,
        "tle_line1": "1 43262U 18031D   25361.18185053  .00000722  00000+0  11132-3 0  9999",
        "tle_line2": "2 43262  98.0784  59.0210 0000456  70.4947 289.6312 14.76434470417304"
      },
      "geometry": {
        "type": "Point",
        "coordinates": [
          -103.82118323707766,
          63.91536706167375
        ]
      }
    },
    {
      "type": "Feature",
      "properties": {
        "norad_id": 43437,
        "name": "SENTINEL-3B",
        "group": "resource",
        "lat": 10.500356441127485,
        "lon": -111.94083897723073,
        "alt_km": 803.9740844553125,
        "timestamp": "2025-12-27T11:23:19.535068+00:00",
        "meta_object_name": "SENTINEL-3B",
        "meta_object_id": "2018-039A",
        "meta_epoch": "2025-12-27T03:51:56.372832",
        "meta_mean_motion": 14.26739648,
        "meta_eccentricity": 0.0001549,
        "meta_inclination": 98.6248,
        "meta_ra_of_asc_node": 66.1383,
        "meta_arg_of_pericenter": 87.2146,
        "meta_mean_anomaly": 272.9212,
        "meta_ephemeris_type": 0,
        "meta_classification_type": "U",
        "meta_norad_cat_id": 43437,
        "meta_element_set_no": 999,
        "meta_rev_at_epoch": 39959,
        "meta_bstar": 8.169e-05,
        "meta_mean_motion_dot": 1.54e-06,
        "meta_mean_motion_ddot": 0,
        "tle_line1": "1 43437U 18039A   25361.16106913  .00000154  00000+0  81690-4 0  9993",
        "tle_line2": "2 43437  98.6248  66.1383 0001549  87.2146 272.9212 14.26739648399594"
      },
      "geometry": {
        "type": "Point",
        "coordinates": [
          -111.94083897723073,
          10.500356441127485
        ]
      }
    },
    {
      "type": "Feature",
      "properties": {
        "norad_id": 43461,
        "name": "GAOFEN-5 01",
        "group": "resource",
        "lat": 37.14271105252551,
        "lon": 151.1541715089199,
        "alt_km": 689.0645584657495,
        "timestamp": "2025-12-27T11:23:19.535079+00:00",
        "meta_object_name": "GAOFEN-5 01",
        "meta_object_id": "2018-043A",
        "meta_epoch": "2025-12-26T21:35:04.985664",
        "meta_mean_motion": 14.6042519,
        "meta_eccentricity": 5.96e-05,
        "meta_inclination": 98.4347,
        "meta_ra_of_asc_node": 324.1154,
        "meta_arg_of_pericenter": 225.5814,
        "meta_mean_anomaly": 134.5337,
        "meta_ephemeris_type": 0,
        "meta_classification_type": "U",
        "meta_norad_cat_id": 43461,
        "meta_element_set_no": 999,
        "meta_rev_at_epoch": 40654,
        "meta_bstar": 0.00012641,
        "meta_mean_motion_dot": 5.63e-06,
        "meta_mean_motion_ddot": 0,
        "tle_line1": "1 43461U 18043A   25360.89936326  .00000563  00000+0  12641-3 0  9996",
        "tle_line2": "2 43461  98.4347 324.1154 0000596 225.5814 134.5337 14.60425190406549"
      },
      "geometry": {
        "type": "Point",
        "coordinates": [
          151.1541715089199,
          37.14271105252551
        ]
      }
    },
    {
      "type": "Feature",
      "properties": {
        "norad_id": 43484,
        "name": "GAOFEN-6",
        "group": "resource",
        "lat": -81.66598735738908,
        "lon": 134.60656184722092,
        "alt_km": 649.9389872267247,
        "timestamp": "2025-12-27T11:23:19.535088+00:00",
        "meta_object_name": "GAOFEN-6",
        "meta_object_id": "2018-048A",
        "meta_epoch": "2025-12-27T05:16:36.596064",
        "meta_mean_motion": 14.76592998,
        "meta_eccentricity": 0.0012365,
        "meta_inclination": 97.8008,
        "meta_ra_of_asc_node": 64.9991,
        "meta_arg_of_pericenter": 20.4504,
        "meta_mean_anomaly": 339.7199,
        "meta_ephemeris_type": 0,
        "meta_classification_type": "U",
        "meta_norad_cat_id": 43484,
        "meta_element_set_no": 999,
        "meta_rev_at_epoch": 40801,
        "meta_bstar": 0.00018054,
        "meta_mean_motion_dot": 1.212e-05,
        "meta_mean_motion_ddot": 0,
        "tle_line1": "1 43484U 18048A   25361.21986801  .00001212  00000+0  18054-3 0  9992",
        "tle_line2": "2 43484  97.8008  64.9991 0012365  20.4504 339.7199 14.76592998408011"
      },
      "geometry": {
        "type": "Point",
        "coordinates": [
          134.60656184722092,
          -81.66598735738908
        ]
      }
    },
    {
      "type": "Feature",
      "properties": {
        "norad_id": 43585,
        "name": "GAOFEN-11 01",
        "group": "resource",
        "lat": -22.68155946341399,
        "lon": 67.29654074273267,
        "alt_km": 423.8176175943581,
        "timestamp": "2025-12-27T11:23:19.535099+00:00",
        "meta_object_name": "GAOFEN-11 01",
        "meta_object_id": "2018-063A",
        "meta_epoch": "2025-12-27T05:17:17.484864",
        "meta_mean_motion": 15.49635919,
        "meta_eccentricity": 0.000394,
        "meta_inclination": 97.1534,
        "meta_ra_of_asc_node": 64.0356,
        "meta_arg_of_pericenter": 237.0494,
        "meta_mean_anomaly": 123.0379,
        "meta_ephemeris_type": 0,
        "meta_classification_type": "U",
        "meta_norad_cat_id": 43585,
        "meta_element_set_no": 999,
        "meta_rev_at_epoch": 41366,
        "meta_bstar": 0.00036868,
        "meta_mean_motion_dot": 0.00020336,
        "meta_mean_motion_ddot": 0,
        "tle_line1": "1 43585U 18063A   25361.22034126  .00020336  00000+0  36868-3 0  9997",
        "tle_line2": "2 43585  97.1534  64.0356 0003940 237.0494 123.0379 15.49635919413662"
      },
      "geometry": {
        "type": "Point",
        "coordinates": [
          67.29654074273267,
          -22.68155946341399
        ]
      }
    },
    {
      "type": "Feature",
      "properties": {
        "norad_id": 43613,
        "name": "ICESAT-2",
        "group": "resource",
        "lat": 28.715981307188606,
        "lon": -116.3852706684526,
        "alt_km": 479.3004617058732,
        "timestamp": "2025-12-27T11:23:19.535108+00:00",
        "meta_object_name": "ICESAT-2",
        "meta_object_id": "2018-070A",
        "meta_epoch": "2025-12-27T03:24:21.780000",
        "meta_mean_motion": 15.28291115,
        "meta_eccentricity": 0.0003257,
        "meta_inclination": 92.0036,
        "meta_ra_of_asc_node": 244.624,
        "meta_arg_of_pericenter": 108.3024,
        "meta_mean_anomaly": 251.858,
        "meta_ephemeris_type": 0,
        "meta_classification_type": "U",
        "meta_norad_cat_id": 43613,
        "meta_element_set_no": 999,
        "meta_rev_at_epoch": 40618,
        "meta_bstar": 0.00052652,
        "meta_mean_motion_dot": 0.00014514,
        "meta_mean_motion_ddot": 0,
        "tle_line1": "1 43613U 18070A   25361.14191875  .00014514  00000+0  52652-3 0  9993",
        "tle_line2": "2 43613  92.0036 244.6240 0003257 108.3024 251.8580 15.28291115406189"
      },
      "geometry": {
        "type": "Point",
        "coordinates": [
          -116.3852706684526,
          28.715981307188606
        ]
      }
    },
    {
      "type": "Feature",
      "properties": {
        "norad_id": 43719,
        "name": "HYSIS",
        "group": "resource",
        "lat": 58.14405902100677,
        "lon": 51.2853570888728,
        "alt_km": 627.3779967820974,
        "timestamp": "2025-12-27T11:23:19.535119+00:00",
        "meta_object_name": "HYSIS",
        "meta_object_id": "2018-096A",
        "meta_epoch": "2025-12-27T04:37:35.124960",
        "meta_mean_motion": 14.78682856,
        "meta_eccentricity": 7.22e-05,
        "meta_inclination": 98.0074,
        "meta_ra_of_asc_node": 64.0985,
        "meta_arg_of_pericenter": 55.3187,
        "meta_mean_anomaly": 304.8092,
        "meta_ephemeris_type": 0,
        "meta_classification_type": "U",
        "meta_norad_cat_id": 43719,
        "meta_element_set_no": 999,
        "meta_rev_at_epoch": 38200,
        "meta_bstar": 0.00015315,
        "meta_mean_motion_dot": 1.071e-05,
        "meta_mean_motion_ddot": 0,
        "tle_line1": "1 43719U 18096A   25361.19276765  .00001071  00000+0  15315-3 0  9994",
        "tle_line2": "2 43719  98.0074  64.0985 0000722  55.3187 304.8092 14.78682856382000"
      },
      "geometry": {
        "type": "Point",
        "coordinates": [
          51.2853570888728,
          58.14405902100677
        ]
      }
    }
  ]
}